LAPAN-A2
1 40931U 00000    26168.09809028  .00000000  00000-0 -12415-2 0    05
2 40931   5.9979 170.1769 0012596   0.3925 244.3708 14.87562734    06
# 20260620.18-20260620.19, 1603 measurements, 1.091 kHz rms
